FLOCK 4G-7              
1 62624U 25009R   26068.79996108  .00011422  00000+0  43168-3 0  9991
2 62624  97.3984 150.8270 0001396 336.9783  23.1393 15.27141471 63725
STARLINK-32949          
1 63145U 25043P   26068.26149331  .00049878  00000+0  18119-2 0  9991
2 63145  43.0039  18.9239 0001900 272.7351  87.3283 15.27541889 57866
